STARLINK-32009          
1 60104U 24117P   26068.30667209 -.00001277  00000+0 -30998-4 0  9992
2 60104  53.1612  39.1754 0001335  85.8460 274.2694 15.30189358 96825
TEVEL2-4                
1 63213U 25052D   26068.69417973  .00020990  00000+0  70363-3 0  9998
2 63213  97.4009 325.1237 0004733  95.3468 264.8313 15.30925813 54879
